{
    "links": {
        "self": "http://www.neowsapp.com/rest/v1/neo/3141539?api_key=iIulBulltgU6a56xZRHN4H3l9WmuAYTsLGpBGhQ2"
    },
    "id": "3141539",
    "neo_reference_id": "3141539",
    "name": "(2002 VO69)",
    "designation": "2002 VO69",
    "nasa_jpl_url": "http://ssd.jpl.nasa.gov/sbdb.cgi?sstr=3141539",
    "absolute_magnitude_h": 22.9,
    "estimated_diameter": {
        "kilometers": {
            "estimated_diameter_min": 0.0699125232,
            "estimated_diameter_max": 0.1563291544
        },
        "meters": {
            "estimated_diameter_min": 69.9125232246,
            "estimated_diameter_max": 156.3291544087
        },
        "miles": {
            "estimated_diameter_min": 0.0434416145,
            "estimated_diameter_max": 0.097138403
        },
        "feet": {
            "estimated_diameter_min": 229.3718026961,
            "estimated_diameter_max": 512.8909429502
        }
    },
    "is_potentially_hazardous_asteroid": false,
    "close_approach_data": [
        {
            "close_approach_date": "2002-11-16",
            "close_approach_date_full": "2002-Nov-16 07:54",
            "epoch_date_close_approach": 1037433240000,
            "relative_velocity": {
                "kilometers_per_second": "12.7067305433",
                "kilometers_per_hour": "45744.2299559642",
                "miles_per_hour": "28423.6855523601"
            },
            "miss_distance": {
                "astronomical": "0.072441634",
                "lunar": "28.179795626",
                "kilometers": "10837114.14571958",
                "miles": "6733870.476427004"
            },
            "orbiting_body": "Earth"
        },
        {
            "close_approach_date": "2003-04-02",
            "close_approach_date_full": "2003-Apr-02 04:19",
            "epoch_date_close_approach": 1049257140000,
            "relative_velocity": {
                "kilometers_per_second": "10.7199365261",
                "kilometers_per_hour": "38591.7714937973",
                "miles_per_hour": "23979.426015132"
            },
            "miss_distance": {
                "astronomical": "0.3718511294",
                "lunar": "144.6500893366",
                "kilometers": "55628136.915334378",
                "miles": "34565721.4453872964"
            },
            "orbiting_body": "Earth"
        }
    ],
    "orbital_data": {
        "orbit_id": "9",
        "orbit_determination_date": "2017-04-06 09:14:40",
        "first_observation_date": "2002-11-05",
        "last_observation_date": "2002-11-14",
        "data_arc_in_days": 9,
        "observations_used": 29,
        "orbit_uncertainty": "8",
        "minimum_orbit_intersection": ".0559818",
        "jupiter_tisserand_invariant": "4.535",
        "epoch_osculation": "2452589.5",
        "eccentricity": ".3486917757257289",
        "semi_major_axis": "1.43956567067952",
        "inclination": "20.93955127570986",
        "ascending_node_longitude": "47.3871544662504",
        "orbital_period": "630.8783866362841",
        "perihelion_distance": ".9376009606964785",
        "perihelion_argument": "55.66655997858884",
        "aphelion_distance": "1.941530380662562",
        "perihelion_time": "2452638.762689934164",
        "mean_anomaly": "331.8890855163763",
        "mean_motion": ".570632958151328",
        "equinox": "J2000",
        "orbit_class": {
            "orbit_class_type": "APO",
            "orbit_class_description": "Near-Earth asteroid orbits which cross the Earth’s orbit similar to that of 1862 Apollo",
            "orbit_class_range": "a (semi-major axis) > 1.0 AU; q (perihelion) < 1.017 AU"
        }
    },
    "is_sentry_object": false
}